MERIDIAN 10             
1 52145U 22030A   26167.97014090  .00000175  00000+0  00000+0 0  9997
2 52145  62.6763 140.8253 6783888 272.8535  17.6451  2.00613491 31028
OMNI-L1                 
1 52157U 22033A   26168.11138322  .00001601  00000+0  20472-3 0  9999
2 52157  97.8398 247.2901 0003819 288.6791  71.4007 14.82748867227446
ENMAP                   
1 52159U 22033C   26168.16548270 -.00000051  00000+0 -70661-7 0  9992
2 52159  97.9800 250.4154 0001401  86.4846 273.6523 14.74986617226652
ARCSAT-1                
1 52161U 22033E   26168.18995426  .00009770  00000+0  15474-3 0  9998
2 52161  97.2754 260.4626 0004993 178.1860 181.9413 15.53615355235706
GLOBAL-18               
1 52196U 22034B   26167.54388873  .00018528  00000+0  37809-3 0  9995
2 52196  52.9818 259.7150 0003120 276.9150  83.1501 15.46262137236863
GAOFEN-3 03             
1 52200U 22035A   26168.16029565  .00000017  00000+0  18466-4 0  9994
2 52200  98.4053 176.7411 0001307 101.6222 258.5115 14.42215157220847
DAQI-1                  
1 52257U 22039A   26168.21400917  .00000539  00000+0  12803-3 0  9997
2 52257  98.1489 107.0661 0002221 254.1302 105.9653 14.57678665221949
BRO-6                   
1 52422U 22047AE  26168.13774659  .00031350  00000+0  54873-3 0  9996
2 52422  97.3403 259.1918 0005044  79.0596 281.1223 15.50549108231145
JILIN-1 GAOFEN 3D27     
1 52444U 22048B   26168.02810016  .00115802  00000+0  76289-3 0  9997
2 52444  97.5715 281.9481 0001076  20.7296 339.4011 15.75306255229450
JILIN-1 GAOFEN 3D28     
1 52445U 22048C   26167.90092095  .00125222  00000+0  72177-3 0  9992
2 52445  97.5652 281.9583 0000527 200.2816 159.8429 15.78324120229481
VIGORIDE-3              
1 52760U 22057AE  26167.95461344  .00004725  00000+0  17957-3 0  9993
2 52760  97.6609 307.9222 0009593 121.0739 239.1442 15.27278169225128
ION SCV-006             
1 52761U 22057AF  26168.16507240  .00010319  00000+0  21736-3 0  9990
2 52761  97.6103 316.7854 0018410 113.7779 246.5402 15.45287445226112
SHERPA-AC1              
1 52763U 22057AH  26168.13204848  .00006528  00000+0  18693-3 0  9992
2 52763  97.6690 317.3554 0008908  93.6620 266.5642 15.36263651225694
OMNI-L2                 
1 52771U 22057AR  26168.05498738  .00001137  00000+0  15161-3 0  9993
2 52771  97.4716 230.4223 0005780 337.3910  22.7048 14.81370586220370
STEP CUBE LAB-II        
1 52897U 22065D   26168.13592104  .00000497  00000+0  10568-3 0  9996
2 52897  98.2226 312.0371 0009298  32.8521 327.3257 14.63302837211491
RANDEV                  
1 52898U 22065E   26168.13701125  .00000585  00000+0  12160-3 0  9990
2 52898  98.2211 312.3898 0008648  33.8157 326.3595 14.63690473211240
SNUGLITE-II             
1 52899U 22065F   26168.16770461  .00000759  00000+0  15290-3 0  9993
2 52899  98.2202 312.9981 0008008  33.1405 327.0298 14.64347616210997
MIMAN                   
1 52900U 22065G   26168.11674093  .00000398  00000+0  89214-4 0  9992
2 52900  98.2260 310.5993 0008230  35.1478 325.0265 14.61843588210437
STARLINK-4362           
1 53043U 22077A   26168.06625257  .00000424  00000+0  33378-4 0  9996
2 53043  97.3524 347.0170 0001556  72.3757 287.7640 15.05649486215861
LARES-2                 
1 53105U 22080A   26167.54304696 -.00000016  00000+0  00000+0 0  9991
2 53105  70.1619 305.5499 0005380 334.9817  25.0421  6.38965086 91629
GREENCUBE (IO-117)      
1 53109U 22080E   26164.29338770 -.00000003  00000+0  00000+0 0  9990
2 53109  70.1444 299.5995 0008910 290.4576  69.5127  6.42583230 91811
STARLINK-4410           
1 53204U 22084R   26168.08238693  .00032114  00000+0  10945-2 0  9993
2 53204  97.6007 229.1678 0002165  74.7046 285.4434 15.30310749214990
COSMOS 2558             
1 53323U 22089A   26168.01934524  .00100838  00000+0  67062-3 0  9991
2 53323  97.2264 272.0760 0001187 236.5769 123.5382 15.75133691217800
TECMS                   
1 53346U 22090A   26168.22475321  .00002961  00000+0  13498-3 0  9998
2 53346  97.3138 236.3326 0003459 174.7988 185.3284 15.21407557214818
DONGPO 02               
1 53452U 22098J   26168.17773672  .00096038  00000+0  65338-3 0  9996
2 53452  97.5532 299.3648 0002454 270.9797  89.1185 15.74617376214791
DONGPO 01               
1 53453U 22098K   26168.16830640  .00083564  00000+0  62469-3 0  9997
2 53453  97.5598 299.8812 0001993 232.3781 127.7301 15.72444208214759
STARLINK-4400           
1 53468U 22099D   26167.91257468 -.00000379  00000+0 -22299-4 0  9990
2 53468  97.3486 286.9515 0001253  87.5212 272.6159 15.05648893210900
STARLINK-4621           
1 53676U 22105AE  26167.91533618 -.00006758  00000+0 -46440-3 0  9993
2 53676  97.3524  46.9671 0002468  81.0408 279.1099 15.05684744208161
SHERPA-LTC2             
1 53754U 22107BG  26167.84627131  .00004387  00000+0  22965-3 0  9998
2 53754  53.2348 221.7741 0393866 225.0850 131.7536 14.69710907202499
CENTISPACE-1 S3         
1 53757U 22108A   26168.13925080  .00000377  00000+0  11403-3 0  9999
2 53757  53.5337  55.4572 0009366 355.0827   5.0055 14.61252680201527
CENTISPACE-1 S4         
1 53758U 22108B   26168.12356024  .00000532  00000+0  14318-3 0  9996
2 53758  53.5312  53.0402 0008563 343.1736  16.8954 14.61933805201558
