OBJECT_NAME,OBJECT_ID,EPOCH,MEAN_MOTION,ECCENTRICITY,INCLINATION,RA_OF_ASC_NODE,ARG_OF_PERICENTER,MEAN_ANOMALY,EPHEMERIS_TYPE,CLASSIFICATION_TYPE,NORAD_CAT_ID,ELEMENT_SET_NO,REV_AT_EPOCH,BSTAR,MEAN_MOTION_DOT,MEAN_MOTION_DDOT
MERIDIAN 10,2022-030A,2026-06-16T23:17:00.173760,2.00613491,.6783888,62.6763,140.8253,272.8535,17.6451,0,U,52145,999,3102,0,.175E-5,0
OMNI-L1,2022-033A,2026-06-17T02:40:23.510208,14.82748867,.0003819,97.8398,247.2901,288.6791,71.4007,0,U,52157,999,22744,.20472E-3,.1601E-4,0
ENMAP,2022-033C,2026-06-17T03:58:17.705280,14.74986617,.0001401,97.9800,250.4154,86.4846,273.6523,0,U,52159,999,22665,-.70661E-7,-.51E-6,0
ARCSAT-1,2022-033E,2026-06-17T04:33:32.048064,15.53615355,.0004993,97.2754,260.4626,178.1860,181.9413,0,U,52161,999,23570,.15474E-3,.977E-4,0
GLOBAL-18,2022-034B,2026-06-16T13:03:11.986272,15.46262137,.00031204,52.9818,259.7150,276.9150,83.1501,0,U,52196,999,23686,.37808902E-3,.18528E-3,0
GAOFEN-3 03,2022-035A,2026-06-17T03:50:49.544160,14.42215157,.0001307,98.4053,176.7411,101.6222,258.5115,0,U,52200,999,22084,.18466E-4,.17E-6,0
DAQI-1,2022-039A,2026-06-17T05:08:10.392288,14.57678665,.0002221,98.1489,107.0661,254.1302,105.9653,0,U,52257,999,22194,.12803E-3,.539E-5,0
BRO-6,2022-047AE,2026-06-17T03:18:21.305376,15.50549108,.0005044,97.3403,259.1918,79.0596,281.1223,0,U,52422,999,23114,.54873E-3,.3135E-3,0
JILIN-1 GAOFEN 3D27,2022-048B,2026-06-17T00:40:27.853824,15.75306255,.0001076,97.5715,281.9481,20.7296,339.4011,0,U,52444,999,22945,.76289E-3,.115802E-2,0
JILIN-1 GAOFEN 3D28,2022-048C,2026-06-16T21:37:19.570080,15.78324120,.0000527,97.5652,281.9583,200.2816,159.8429,0,U,52445,999,22948,.72177E-3,.125222E-2,0
VIGORIDE-3,2022-057AE,2026-06-16T22:54:38.601216,15.27278169,.0009593,97.6609,307.9222,121.0739,239.1442,0,U,52760,999,22512,.17957E-3,.4725E-4,0
ION SCV-006,2022-057AF,2026-06-17T03:57:42.255360,15.45287445,.001841,97.6103,316.7854,113.7779,246.5402,0,U,52761,999,22611,.21736E-3,.10319E-3,0
SHERPA-AC1,2022-057AH,2026-06-17T03:10:08.988672,15.36263651,.0008908,97.6690,317.3554,93.6620,266.5642,0,U,52763,999,22569,.18693E-3,.6528E-4,0
OMNI-L2,2022-057AR,2026-06-17T01:19:10.909632,14.81370586,.000578,97.4716,230.4223,337.3910,22.7048,0,U,52771,999,22037,.15161E-3,.1137E-4,0
STEP CUBE LAB-II,2022-065D,2026-06-17T03:15:43.577856,14.63302837,.0009298,98.2226,312.0371,32.8521,327.3257,0,U,52897,999,21149,.10568E-3,.497E-5,0
RANDEV,2022-065E,2026-06-17T03:17:17.772000,14.63690473,.0008648,98.2211,312.3898,33.8157,326.3595,0,U,52898,999,21124,.1216E-3,.585E-5,0
SNUGLITE-II,2022-065F,2026-06-17T04:01:29.678304,14.64347616,.0008008,98.2202,312.9981,33.1405,327.0298,0,U,52899,999,21099,.1529E-3,.759E-5,0
MIMAN,2022-065G,2026-06-17T02:48:06.416352,14.61843588,.000823,98.2260,310.5993,35.1478,325.0265,0,U,52900,999,21043,.89214E-4,.398E-5,0
STARLINK-4362,2022-077A,2026-06-17T01:35:24.222048,15.05649486,.0001556,97.3524,347.0170,72.3757,287.7640,0,U,53043,999,21586,.33378E-4,.424E-5,0
LARES-2,2022-080A,2026-06-16T13:01:59.257344,6.38965086,.00053801,70.1619,305.5499,334.9817,25.0421,0,U,53105,999,9162,0,-.16E-6,0
GREENCUBE (IO-117),2022-080E,2026-06-13T07:02:28.697280,6.42583230,.00089108,70.1444,299.5995,290.4576,69.5127,0,U,53109,999,9181,0,-.3E-7,0
STARLINK-4410,2022-084R,2026-06-17T01:58:38.230752,15.30310749,.0002165,97.6007,229.1678,74.7046,285.4434,0,U,53204,999,21499,.10945E-2,.32114E-3,0
COSMOS 2558,2022-089A,2026-06-17T00:27:51.428736,15.75133691,.0001187,97.2264,272.0760,236.5769,123.5382,0,U,53323,999,21780,.67062E-3,.100838E-2,0
TECMS,2022-090A,2026-06-17T05:23:38.677344,15.21407557,.0003459,97.3138,236.3326,174.7988,185.3284,0,U,53346,999,21481,.13498E-3,.2961E-4,0
DONGPO 02,2022-098J,2026-06-17T04:15:56.452608,15.74617376,.0002454,97.5532,299.3648,270.9797,89.1185,0,U,53452,999,21479,.65338E-3,.96038E-3,0
DONGPO 01,2022-098K,2026-06-17T04:02:21.672960,15.72444208,.0001993,97.5598,299.8812,232.3781,127.7301,0,U,53453,999,21475,.62469E-3,.83564E-3,0
STARLINK-4400,2022-099D,2026-06-16T21:54:06.452352,15.05648893,.0001253,97.3486,286.9515,87.5212,272.6159,0,U,53468,999,21090,-.22299E-4,-.379E-5,0
STARLINK-4621,2022-105AE,2026-06-16T21:58:05.045952,15.05684744,.0002468,97.3524,46.9671,81.0408,279.1099,0,U,53676,999,20816,-.4644E-3,-.6758E-4,0
SHERPA-LTC2,2022-107BG,2026-06-16T20:18:37.841184,14.69710907,.0393866,53.2348,221.7741,225.0850,131.7536,0,U,53754,999,20249,.22965E-3,.4387E-4,0
CENTISPACE-1 S3,2022-108A,2026-06-17T03:20:31.269120,14.61252680,.0009366,53.5337,55.4572,355.0827,5.0055,0,U,53757,999,20152,.11403E-3,.377E-5,0
CENTISPACE-1 S4,2022-108B,2026-06-17T02:57:55.604736,14.61933805,.0008563,53.5312,53.0402,343.1736,16.8954,0,U,53758,999,20155,.14318E-3,.532E-5,0
